OBJECT_NAME,OBJECT_ID,EPOCH,MEAN_MOTION,ECCENTRICITY,INCLINATION,RA_OF_ASC_NODE,ARG_OF_PERICENTER,MEAN_ANOMALY,EPHEMERIS_TYPE,CLASSIFICATION_TYPE,NORAD_CAT_ID,ELEMENT_SET_NO,REV_AT_EPOCH,BSTAR,MEAN_MOTION_DOT,MEAN_MOTION_DDOT
FLOCK 4BE-27,2024-149AX,2026-06-13T17:42:56.755296,15.34392406,.0002731,97.3834,246.5873,334.0619,26.0487,0,U,60513,999,10161,.28406E-3,.9384E-4,0
FLOCK 4BE-9,2024-149AY,2026-06-13T18:40:08.711040,15.40701678,.0001478,97.3799,249.0161,321.0470,39.0670,0,U,60514,999,10179,.39609E-3,.16101E-3,0
FLOCK 4BE-6,2024-149BA,2026-06-13T17:44:06.116352,15.39490034,.0002126,97.3798,248.3418,316.1074,44.0003,0,U,60516,999,10174,.37828E-3,.1477E-3,0
FLOCK 4BE-1,2024-149BC,2026-06-13T19:26:45.338208,15.42497706,.0002856,97.3787,249.8120,307.4858,52.6129,0,U,60518,999,10185,.39523E-3,.17059E-3,0
FLOCK 4BE-28,2024-149BD,2026-06-13T18:21:12.722976,15.44806055,.0002878,97.3749,250.4799,302.1360,57.9609,0,U,60519,999,10191,.42029E-3,.19621E-3,0
IPERDRONE.0,2024-149BE,2026-06-13T19:01:54.418944,15.66199937,.0003295,97.3784,257.8383,235.0188,125.0763,0,U,60520,999,10238,.74731E-3,.77329E-3,0
TRANSPORTER-11 OBJECT BF,2024-149BF,2026-06-13T18:44:36.362688,15.83263426,.0005712,97.3763,260.4592,237.8480,122.2236,0,U,60521,999,10254,.10576E-2,.233011E-2,0
CONNECTA IOT-2,2024-149BG,2026-06-13T18:22:39.182592,15.23948632,.0005848,97.3845,242.9629,351.4285,8.6851,0,U,60522,999,10137,.19785E-3,.4715E-4,0
PTD-R (TYVAK-0127),2024-149BH,2026-06-13T18:14:53.318112,16.26616725,.0012274,97.3737,265.5498,266.6682,93.3206,0,U,60523,999,10289,.80186E-3,.2620933E-1,.24567E-5
CONNECTA IOT-4,2024-149BJ,2026-06-13T19:59:36.117888,15.42030707,.0004017,97.3806,249.1632,301.4437,58.6417,0,U,60524,999,10181,.46659E-3,.19852E-3,0
DEIMOS,2024-149BL,2026-06-13T18:44:10.779648,15.44113955,.0004081,97.3788,250.8707,298.5744,61.5094,0,U,60526,999,10192,.43643E-3,.19909E-3,0
TORO,2024-149BQ,2026-06-13T18:18:13.348800,14.96414616,.0001689,97.6790,239.4944,84.8998,275.2416,0,U,60530,999,9944,.20702E-3,.229E-4,0
LEMU NGE,2024-149BS,2026-06-13T16:54:40.284288,14.94944903,.0002395,97.6849,239.7344,70.0537,290.0942,0,U,60532,999,9943,.21871E-3,.2332E-4,0
LEMUR-2-STELLA,2024-149BT,2026-06-13T18:32:08.980224,15.11743429,.0001624,97.6745,247.2120,94.9619,265.1797,0,U,60533,999,9998,.73715E-3,.12513E-3,0
SATELIOT_4,2024-149BX,2026-06-13T18:16:07.896000,14.96659260,.0003449,97.6742,239.3096,69.3627,290.7964,0,U,60537,999,9946,.20279E-3,.2256E-4,0
PICO-02A021,2024-149BY,2026-06-12T16:57:28.537056,15.03207412,.00051124,97.6744,242.5761,39.5779,320.5819,0,U,60538,999,9906,.48996502E-3,.6572E-4,0
HAWK-10A,2024-149CA,2026-06-13T18:13:47.855424,14.96505638,.0005086,97.6896,240.7298,87.8564,272.3240,0,U,60540,999,9947,.20693E-3,.2294E-4,0
UMBRA-09,2024-149CB,2026-06-13T18:31:01.710912,15.17955090,.0000515,97.6979,251.9189,295.6651,64.4529,0,U,60541,999,10020,.9319E-3,.18887E-3,0
CAPELLA-15 (ACADIA-5),2024-149CE,2026-06-13T18:27:21.231072,14.92394296,.0005023,97.6778,237.7580,86.4716,273.7078,0,U,60544,999,9934,.38501E-3,.3888E-4,0
