FLOCK 4BE-27            
1 60513U 24149AX  26164.73815689  .00009384  00000+0  28406-3 0  9997
2 60513  97.3834 246.5873 0002731 334.0619  26.0487 15.34392406101618
FLOCK 4BE-9             
1 60514U 24149AY  26164.77787861  .00016101  00000+0  39609-3 0  9994
2 60514  97.3799 249.0161 0001477 321.0470  39.0670 15.40701678101793
FLOCK 4BE-6             
1 60516U 24149BA  26164.73895968  .00014770  00000+0  37828-3 0  9991
2 60516  97.3798 248.3418 0002126 316.1074  44.0003 15.39490034101748
FLOCK 4BE-1             
1 60518U 24149BC  26164.81024697  .00017059  00000+0  39523-3 0  9992
2 60518  97.3787 249.8120 0002855 307.4858  52.6129 15.42497706101859
FLOCK 4BE-28            
1 60519U 24149BD  26164.76473060  .00019621  00000+0  42029-3 0  9991
2 60519  97.3749 250.4799 0002878 302.1360  57.9609 15.44806055101914
IPERDRONE.0             
1 60520U 24149BE  26164.79299097  .00077329  00000+0  74731-3 0  9996
2 60520  97.3784 257.8383 0003295 235.0188 125.0763 15.66199937102389
TRANSPORTER-11 OBJECT BF
1 60521U 24149BF  26164.78097643  .00233011  00000+0  10576-2 0  9997
2 60521  97.3763 260.4592 0005712 237.8480 122.2236 15.83263426102546
CONNECTA IOT-2          
1 60522U 24149BG  26164.76573129  .00004715  00000+0  19785-3 0  9993
2 60522  97.3845 242.9629 0005847 351.4285   8.6851 15.23948632101372
PTD-R (TYVAK-0127)      
1 60523U 24149BH  26164.76033934  .02620933  24567-5  80186-3 0  9990
2 60523  97.3737 265.5498 0012274 266.6682  93.3206 16.26616725102890
CONNECTA IOT-4          
1 60524U 24149BJ  26164.83305693  .00019852  00000+0  46659-3 0  9990
2 60524  97.3806 249.1632 0004017 301.4437  58.6417 15.42030707101814
DEIMOS                  
1 60526U 24149BL  26164.78068033  .00019909  00000+0  43643-3 0  9993
2 60526  97.3788 250.8707 0004080 298.5744  61.5094 15.44113955101929
TORO                    
1 60530U 24149BQ  26164.76265451  .00002290  00000+0  20702-3 0  9995
2 60530  97.6790 239.4944 0001688  84.8998 275.2416 14.96414616 99443
LEMU NGE                
1 60532U 24149BS  26164.70463292  .00002332  00000+0  21871-3 0  9999
2 60532  97.6849 239.7344 0002395  70.0537 290.0942 14.94944903 99432
LEMUR-2-STELLA          
1 60533U 24149BT  26164.77232616  .00012513  00000+0  73715-3 0  9997
2 60533  97.6745 247.2120 0001624  94.9619 265.1797 15.11743429 99985
SATELIOT_4              
1 60537U 24149BX  26164.76120250  .00002256  00000+0  20279-3 0  9990
2 60537  97.6742 239.3096 0003449  69.3627 290.7964 14.96659260 99466
PICO-02A021             
1 60538U 24149BY  26163.70658029  .00006572  00000+0  48997-3 0  9996
2 60538  97.6744 242.5761 0005112  39.5779 320.5819 15.03207412 99064
HAWK-10A                
1 60540U 24149CA  26164.75958166  .00002294  00000+0  20693-3 0  9990
2 60540  97.6896 240.7298 0005086  87.8564 272.3240 14.96505638 99477
UMBRA-09                
1 60541U 24149CB  26164.77154759  .00018887  00000+0  93190-3 0  9996
2 60541  97.6979 251.9189 0000515 295.6651  64.4529 15.17955090100200
CAPELLA-15 (ACADIA-5)   
1 60544U 24149CE  26164.76899573  .00003888  00000+0  38501-3 0  9998
2 60544  97.6778 237.7580 0005022  86.4716 273.7078 14.92394296 99346
